COSMOS 2433 (720)       
1 32275U 07052A   25320.81095740 -.00000044  00000+0  00000+0 0  9996
2 32275  65.6967 323.0769 0005848 247.6820 112.2842  2.13104157140531
COSMOS 2432 (719)       
1 32276U 07052B   25321.52716081 -.00000046  00000+0  00000+0 0  9996
2 32276  65.7122 323.1765 0010990 309.1023 184.8564  2.13103260140570
COSMOS 2436 (723)       
1 32395U 07065C   25321.48045797  .00000055  00000+0  00000+0 0  9995
2 32395  64.3229 199.1260 0017593   7.1311 170.3752  2.13100080139212
COSMOS 2456 (730)       
1 36111U 09070A   25322.15743027 -.00000036  00000+0  00000+0 0  9999
2 36111  64.8867  78.1782 0002193 302.0357  58.5669  2.13103600123934
COSMOS 2457 (733)       
1 36112U 09070B   25321.53503314 -.00000035  00000+0  00000+0 0  9993
2 36112  64.8717  78.0476 0005394 150.6069 221.8918  2.13100979123928
COSMOS 2460 (732)       
1 36402U 10007C   25321.28308873 -.00000046  00000+0  00000+0 0  9994
2 36402  65.5434 321.6333 0002932 261.0187 277.2795  2.13106266122210
COSMOS 2476 (744)       
1 37867U 11064A   25320.46587108 -.00000025  00000+0  00000+0 0  9990
2 37867  65.1486  80.0601 0023474 232.0791 179.3659  2.13101423109234
COSMOS 2477 (745)       
1 37868U 11064B   25321.10183586 -.00000029  00000+0  00000+0 0  9999
2 37868  65.1554  80.1159 0020559 232.4531 127.6830  2.13102868109249
COSMOS 2475 (743)       
1 37869U 11064C   25321.62490966 -.00000031  00000+0  00000+0 0  9993
2 37869  65.1625  80.1179 0025490 247.3832 110.1051  2.13101557109256
COSMOS 2492 (754)       
1 39620U 14012A   25322.17137797 -.00000048  00000+0  00000+0 0  9995
2 39620  65.4212 321.1042 0013963 309.1477  50.7497  2.13103312 90746
COSMOS 2500 (755)       
1 40001U 14032A   25321.40540347 -.00000047  00000+0  00000+0 0  9995
2 40001  65.3575 320.8944 0008811 217.5844 142.3772  2.13106032 88940
