[
    {
        "OBJECT_NAME": "COSMOS 2433 (720)",
        "OBJECT_ID": "2007-052A",
        "EPOCH": "2025-11-16T19:27:46.719360",
        "MEAN_MOTION": 2.13104157,
        "ECCENTRICITY": 0.00058486,
        "INCLINATION": 65.6967,
        "RA_OF_ASC_NODE": 323.0769,
        "ARG_OF_PERICENTER": 247.682,
        "MEAN_ANOMALY": 112.2842,
        "EPHEMERIS_TYPE": 0,
        "CLASSIFICATION_TYPE": "U",
        "NORAD_CAT_ID": 32275,
        "ELEMENT_SET_NO": 999,
        "REV_AT_EPOCH": 14053,
        "BSTAR": 0,
        "MEAN_MOTION_DOT": -4.4e-7,
        "MEAN_MOTION_DDOT": 0
    },
    {
        "OBJECT_NAME": "COSMOS 2432 (719)",
        "OBJECT_ID": "2007-052B",
        "EPOCH": "2025-11-17T12:39:06.693984",
        "MEAN_MOTION": 2.1310326,
        "ECCENTRICITY": 0.00109909,
        "INCLINATION": 65.7122,
        "RA_OF_ASC_NODE": 323.1765,
        "ARG_OF_PERICENTER": 309.1023,
        "MEAN_ANOMALY": 184.8564,
        "EPHEMERIS_TYPE": 0,
        "CLASSIFICATION_TYPE": "U",
        "NORAD_CAT_ID": 32276,
        "ELEMENT_SET_NO": 999,
        "REV_AT_EPOCH": 14057,
        "BSTAR": 0,
        "MEAN_MOTION_DOT": -4.6e-7,
        "MEAN_MOTION_DDOT": 0
    },
    {
        "OBJECT_NAME": "COSMOS 2436 (723)",
        "OBJECT_ID": "2007-065C",
        "EPOCH": "2025-11-17T11:31:51.568608",
        "MEAN_MOTION": 2.1310008,
        "ECCENTRICITY": 0.00175937,
        "INCLINATION": 64.3229,
        "RA_OF_ASC_NODE": 199.126,
        "ARG_OF_PERICENTER": 7.1311,
        "MEAN_ANOMALY": 170.3752,
        "EPHEMERIS_TYPE": 0,
        "CLASSIFICATION_TYPE": "U",
        "NORAD_CAT_ID": 32395,
        "ELEMENT_SET_NO": 999,
        "REV_AT_EPOCH": 13921,
        "BSTAR": 0,
        "MEAN_MOTION_DOT": 5.5e-7,
        "MEAN_MOTION_DDOT": 0
    },
    {
        "OBJECT_NAME": "COSMOS 2456 (730)",
        "OBJECT_ID": "2009-070A",
        "EPOCH": "2025-11-18T03:46:41.975328",
        "MEAN_MOTION": 2.131036,
        "ECCENTRICITY": 0.0002193,
        "INCLINATION": 64.8867,
        "RA_OF_ASC_NODE": 78.1782,
        "ARG_OF_PERICENTER": 302.0357,
        "MEAN_ANOMALY": 58.5669,
        "EPHEMERIS_TYPE": 0,
        "CLASSIFICATION_TYPE": "U",
        "NORAD_CAT_ID": 36111,
        "ELEMENT_SET_NO": 999,
        "REV_AT_EPOCH": 12393,
        "BSTAR": 0,
        "MEAN_MOTION_DOT": -3.6e-7,
        "MEAN_MOTION_DDOT": 0
    },
    {
        "OBJECT_NAME": "COSMOS 2457 (733)",
        "OBJECT_ID": "2009-070B",
        "EPOCH": "2025-11-17T12:50:26.863296",
        "MEAN_MOTION": 2.13100979,
        "ECCENTRICITY": 0.00053948,
        "INCLINATION": 64.8717,
        "RA_OF_ASC_NODE": 78.0476,
        "ARG_OF_PERICENTER": 150.6069,
        "MEAN_ANOMALY": 221.8918,
        "EPHEMERIS_TYPE": 0,
        "CLASSIFICATION_TYPE": "U",
        "NORAD_CAT_ID": 36112,
        "ELEMENT_SET_NO": 999,
        "REV_AT_EPOCH": 12392,
        "BSTAR": 0,
        "MEAN_MOTION_DOT": -3.5e-7,
        "MEAN_MOTION_DDOT": 0
    },
    {
        "OBJECT_NAME": "COSMOS 2460 (732)",
        "OBJECT_ID": "2010-007C",
        "EPOCH": "2025-11-17T06:47:38.866272",
        "MEAN_MOTION": 2.13106266,
        "ECCENTRICITY": 0.00029326,
        "INCLINATION": 65.5434,
        "RA_OF_ASC_NODE": 321.6333,
        "ARG_OF_PERICENTER": 261.0187,
        "MEAN_ANOMALY": 277.2795,
        "EPHEMERIS_TYPE": 0,
        "CLASSIFICATION_TYPE": "U",
        "NORAD_CAT_ID": 36402,
        "ELEMENT_SET_NO": 999,
        "REV_AT_EPOCH": 12221,
        "BSTAR": 0,
        "MEAN_MOTION_DOT": -4.6e-7,
        "MEAN_MOTION_DDOT": 0
    },
    {
        "OBJECT_NAME": "COSMOS 2476 (744)",
        "OBJECT_ID": "2011-064A",
        "EPOCH": "2025-11-16T11:10:51.261312",
        "MEAN_MOTION": 2.13101423,
        "ECCENTRICITY": 0.00234745,
        "INCLINATION": 65.1486,
        "RA_OF_ASC_NODE": 80.0601,
        "ARG_OF_PERICENTER": 232.0791,
        "MEAN_ANOMALY": 179.3659,
        "EPHEMERIS_TYPE": 0,
        "CLASSIFICATION_TYPE": "U",
        "NORAD_CAT_ID": 37867,
        "ELEMENT_SET_NO": 999,
        "REV_AT_EPOCH": 10923,
        "BSTAR": 0,
        "MEAN_MOTION_DOT": -2.5e-7,
        "MEAN_MOTION_DDOT": 0
    },
    {
        "OBJECT_NAME": "COSMOS 2477 (745)",
        "OBJECT_ID": "2011-064B",
        "EPOCH": "2025-11-17T02:26:38.618304",
        "MEAN_MOTION": 2.13102868,
        "ECCENTRICITY": 0.00205598,
        "INCLINATION": 65.1554,
        "RA_OF_ASC_NODE": 80.1159,
        "ARG_OF_PERICENTER": 232.4531,
        "MEAN_ANOMALY": 127.683,
        "EPHEMERIS_TYPE": 0,
        "CLASSIFICATION_TYPE": "U",
        "NORAD_CAT_ID": 37868,
        "ELEMENT_SET_NO": 999,
        "REV_AT_EPOCH": 10924,
        "BSTAR": 0,
        "MEAN_MOTION_DOT": -2.9e-7,
        "MEAN_MOTION_DDOT": 0
    },
    {
        "OBJECT_NAME": "COSMOS 2475 (743)",
        "OBJECT_ID": "2011-064C",
        "EPOCH": "2025-11-17T14:59:52.194624",
        "MEAN_MOTION": 2.13101557,
        "ECCENTRICITY": 0.002549,
        "INCLINATION": 65.1625,
        "RA_OF_ASC_NODE": 80.1179,
        "ARG_OF_PERICENTER": 247.3832,
        "MEAN_ANOMALY": 110.1051,
        "EPHEMERIS_TYPE": 0,
        "CLASSIFICATION_TYPE": "U",
        "NORAD_CAT_ID": 37869,
        "ELEMENT_SET_NO": 999,
        "REV_AT_EPOCH": 10925,
        "BSTAR": 0,
        "MEAN_MOTION_DOT": -3.1e-7,
        "MEAN_MOTION_DDOT": 0
    },
    {
        "OBJECT_NAME": "COSMOS 2492 (754)",
        "OBJECT_ID": "2014-012A",
        "EPOCH": "2025-11-18T04:06:47.056608",
        "MEAN_MOTION": 2.13103312,
        "ECCENTRICITY": 0.0013963,
        "INCLINATION": 65.4212,
        "RA_OF_ASC_NODE": 321.1042,
        "ARG_OF_PERICENTER": 309.1477,
        "MEAN_ANOMALY": 50.7497,
        "EPHEMERIS_TYPE": 0,
        "CLASSIFICATION_TYPE": "U",
        "NORAD_CAT_ID": 39620,
        "ELEMENT_SET_NO": 999,
        "REV_AT_EPOCH": 9074,
        "BSTAR": 0,
        "MEAN_MOTION_DOT": -4.8e-7,
        "MEAN_MOTION_DDOT": 0
    },
    {
        "OBJECT_NAME": "COSMOS 2500 (755)",
        "OBJECT_ID": "2014-032A",
        "EPOCH": "2025-11-17T09:43:46.859808",
        "MEAN_MOTION": 2.13106032,
        "ECCENTRICITY": 0.0008811,
        "INCLINATION": 65.3575,
        "RA_OF_ASC_NODE": 320.8944,
        "ARG_OF_PERICENTER": 217.5844,
        "MEAN_ANOMALY": 142.3772,
        "EPHEMERIS_TYPE": 0,
        "CLASSIFICATION_TYPE": "U",
        "NORAD_CAT_ID": 40001,
        "ELEMENT_SET_NO": 999,
        "REV_AT_EPOCH": 8894,
        "BSTAR": 0,
        "MEAN_MOTION_DOT": -4.7e-7,
        "MEAN_MOTION_DDOT": 0
    }
]